{"type": "FeatureCollection", "features": [ {"type": "Feature", "properties": {"norad_id": 40534, "name": "GPS BIIF-9  (PRN 26)", "group": "gps-ops", "lat": -25.931074058977263, "lon": 52.955671528252246, "alt_km": 20469.676814317132, "timestamp": "2025-12-19T20:43:00.344474+00:00", "meta": {"OBJECT_NAME": "GPS BIIF-9  (PRN 26)", "OBJECT_ID": "2015-013A", "EPOCH": "2025-12-18T13:43:57.304128", "MEAN_MOTION": 2.00562317, "ECCENTRICITY": 0.01072792, "INCLINATION": 53.1969, "RA_OF_ASC_NODE": 211.6486, "ARG_OF_PERICENTER": 38.6162, "MEAN_ANOMALY": 322.2412, "EPHEMERIS_TYPE": 0, "CLASSIFICATION_TYPE": "U", "NORAD_CAT_ID": 40534, "ELEMENT_SET_NO": 999, "REV_AT_EPOCH": 7820, "BSTAR": 0, "MEAN_MOTION_DOT": 8.6e-07, "MEAN_MOTION_DDOT": 0}, "tle": {"line1": "1 40534U 15013A   25352.57219102  .00000086  00000+0  00000+0 0  9992", "line2": "2 40534  53.1969 211.6486 0107279  38.6162 322.2412  2.00562317 78200"}}, "geometry": {"type": "Point", "coordinates": [52.955671528252246, -25.931074058977263]}}, {"type": "Feature", "properties": {"norad_id": 40730, "name": "GPS BIIF-10 (PRN 08)", "group": "gps-ops", "lat": 53.466713086695115, "lon": 17.223207261740882, "alt_km": 20074.8626661391, "timestamp": "2025-12-19T20:43:00.344486+00:00", "meta": {"OBJECT_NAME": "GPS BIIF-10 (PRN 08)", "OBJECT_ID": "2015-033A", "EPOCH": "2025-12-19T05:34:06.019968", "MEAN_MOTION": 2.00565397, "ECCENTRICITY": 0.01113411, "INCLINATION": 54.125, "RA_OF_ASC_NODE": 274.5058, "ARG_OF_PERICENTER": 26.9648, "MEAN_ANOMALY": 333.641, "EPHEMERIS_TYPE": 0, "CLASSIFICATION_TYPE": "U", "NORAD_CAT_ID": 40730, "ELEMENT_SET_NO": 999, "REV_AT_EPOCH": 7638, "BSTAR": 0, "MEAN_MOTION_DOT": -2.6e-07, "MEAN_MOTION_DDOT": 0}, "tle": {"line1": "1 40730U 15033A   25353.23201412 -.00000026  00000+0  00000+0 0  9996", "line2": "2 40730  54.1250 274.5058 0111341  26.9648 333.6410  2.00565397 76381"}}, "geometry": {"type": "Point", "coordinates": [17.223207261740882, 53.466713086695115]}}, {"type": "Feature", "properties": {"norad_id": 41019, "name": "GPS BIIF-11 (PRN 10)", "group": "gps-ops", "lat": 41.17242261278977, "lon": 72.60050988776212, "alt_km": 20472.229924675583, "timestamp": "2025-12-19T20:43:00.344498+00:00", "meta": {"OBJECT_NAME": "GPS BIIF-11 (PRN 10)", "OBJECT_ID": "2015-062A", "EPOCH": "2025-12-18T07:03:43.989696", "MEAN_MOTION": 2.00567221, "ECCENTRICITY": 0.0110964, "INCLINATION": 56.8362, "RA_OF_ASC_NODE": 37.7874, "ARG_OF_PERICENTER": 230.0867, "MEAN_ANOMALY": 128.9943, "EPHEMERIS_TYPE": 0, "CLASSIFICATION_TYPE": "U", "NORAD_CAT_ID": 41019, "ELEMENT_SET_NO": 999, "REV_AT_EPOCH": 7420, "BSTAR": 0, "MEAN_MOTION_DOT": -6.9e-07, "MEAN_MOTION_DDOT": 0}, "tle": {"line1": "1 41019U 15062A   25352.29425914 -.00000069  00000+0  00000+0 0  9996", "line2": "2 41019  56.8362  37.7874 0110964 230.0867 128.9943  2.00567221 74204"}}, "geometry": {"type": "Point", "coordinates": [72.60050988776212, 41.17242261278977]}}, {"type": "Feature", "properties": {"norad_id": 41328, "name": "GPS BIIF-12 (PRN 32)", "group": "gps-ops", "lat": -5.579843059469994, "lon": 92.71304070932776, "alt_km": 20263.794608184795, "timestamp": "2025-12-19T20:43:00.344509+00:00", "meta": {"OBJECT_NAME": "GPS BIIF-12 (PRN 32)", "OBJECT_ID": "2016-007A", "EPOCH": "2025-12-18T09:02:43.184544", "MEAN_MOTION": 2.00560483, "ECCENTRICITY": 0.00924431, "INCLINATION": 55.4093, "RA_OF_ASC_NODE": 96.6333, "ARG_OF_PERICENTER": 243.7073, "MEAN_ANOMALY": 115.3258, "EPHEMERIS_TYPE": 0, "CLASSIFICATION_TYPE": "U", "NORAD_CAT_ID": 41328, "ELEMENT_SET_NO": 999, "REV_AT_EPOCH": 7221, "BSTAR": 0, "MEAN_MOTION_DOT": -3.5e-07, "MEAN_MOTION_DDOT": 0}, "tle": {"line1": "1 41328U 16007A   25352.37688871 -.00000035  00000+0  00000+0 0  9994", "line2": "2 41328  55.4093  96.6333 0092443 243.7073 115.3258  2.00560483 72219"}}, "geometry": {"type": "Point", "coordinates": [92.71304070932776, -5.579843059469994]}}, {"type": "Feature", "properties": {"norad_id": 43873, "name": "GPS BIII-1  (PRN 04)", "group": "gps-ops", "lat": -49.44002017187645, "lon": -27.578811196519542, "alt_km": 20126.682897923685, "timestamp": "2025-12-19T20:43:00.344521+00:00", "meta": {"OBJECT_NAME": "GPS BIII-1  (PRN 04)", "OBJECT_ID": "2018-109A", "EPOCH": "2025-12-18T12:57:04.857120", "MEAN_MOTION": 2.00553911, "ECCENTRICITY": 0.0037524, "INCLINATION": 55.5701, "RA_OF_ASC_NODE": 99.3182, "ARG_OF_PERICENTER": 195.2606, "MEAN_ANOMALY": 175.7707, "EPHEMERIS_TYPE": 0, "CLASSIFICATION_TYPE": "U", "NORAD_CAT_ID": 43873, "ELEMENT_SET_NO": 999, "REV_AT_EPOCH": 5145, "BSTAR": 0, "MEAN_MOTION_DOT": -3e-07, "MEAN_MOTION_DDOT": 0}, "tle": {"line1": "1 43873U 18109A   25352.53963955 -.00000030  00000+0  00000+0 0  9998", "line2": "2 43873  55.5701  99.3182 0037524 195.2606 175.7707  2.00553911 51457"}}, "geometry": {"type": "Point", "coordinates": [-27.578811196519542, -49.44002017187645]}}, {"type": "Feature", "properties": {"norad_id": 44506, "name": "GPS BIII-2  (PRN 18)", "group": "gps-ops", "lat": 29.482136481806183, "lon": 135.57659188165758, "alt_km": 20090.376589422507, "timestamp": "2025-12-19T20:43:00.344532+00:00", "meta": {"OBJECT_NAME": "GPS BIII-2  (PRN 18)", "OBJECT_ID": "2019-056A", "EPOCH": "2025-12-19T05:28:09.023808", "MEAN_MOTION": 2.00566646, "ECCENTRICITY": 0.00577244, "INCLINATION": 55.7191, "RA_OF_ASC_NODE": 338.2952, "ARG_OF_PERICENTER": 198.526, "MEAN_ANOMALY": 206.6724, "EPHEMERIS_TYPE": 0, "CLASSIFICATION_TYPE": "U", "NORAD_CAT_ID": 44506, "ELEMENT_SET_NO": 999, "REV_AT_EPOCH": 4646, "BSTAR": 0, "MEAN_MOTION_DOT": -8.1e-07, "MEAN_MOTION_DDOT": 0}, "tle": {"line1": "1 44506U 19056A   25353.22788222 -.00000081  00000+0  00000+0 0  9999", "line2": "2 44506  55.7191 338.2952 0057724 198.5260 206.6724  2.00566646 46469"}}, "geometry": {"type": "Point", "coordinates": [135.57659188165758, 29.482136481806183]}}, {"type": "Feature", "properties": {"norad_id": 45854, "name": "GPS BIII-3  (PRN 23)", "group": "gps-ops", "lat": 56.44937778223095, "lon": 120.88883372823156, "alt_km": 20247.203175587572, "timestamp": "2025-12-19T20:43:00.344544+00:00", "meta": {"OBJECT_NAME": "GPS BIII-3  (PRN 23)", "OBJECT_ID": "2020-041A", "EPOCH": "2025-12-19T05:46:39.794304", "MEAN_MOTION": 2.00561972, "ECCENTRICITY": 0.00606096, "INCLINATION": 56.5512, "RA_OF_ASC_NODE": 35.9326, "ARG_OF_PERICENTER": 203.6529, "MEAN_ANOMALY": 154.7876, "EPHEMERIS_TYPE": 0, "CLASSIFICATION_TYPE": "U", "NORAD_CAT_ID": 45854, "ELEMENT_SET_NO": 999, "REV_AT_EPOCH": 4042, "BSTAR": 0, "MEAN_MOTION_DOT": -6.4e-07, "MEAN_MOTION_DDOT": 0}, "tle": {"line1": "1 45854U 20041A   25353.24073836 -.00000064  00000+0  00000+0 0  9993", "line2": "2 45854  56.5512  35.9326 0060609 203.6529 154.7876  2.00561972 40428"}}, "geometry": {"type": "Point", "coordinates": [120.88883372823156, 56.44937778223095]}}, {"type": "Feature", "properties": {"norad_id": 46826, "name": "GPS BIII-4  (PRN 14)", "group": "gps-ops", "lat": 43.64246209130842, "lon": -98.0828434184821, "alt_km": 20317.401695871118, "timestamp": "2025-12-19T20:43:00.344556+00:00", "meta": {"OBJECT_NAME": "GPS BIII-4  (PRN 14)", "OBJECT_ID": "2020-078A", "EPOCH": "2025-12-16T01:06:13.902336", "MEAN_MOTION": 2.00566891, "ECCENTRICITY": 0.00647554, "INCLINATION": 54.0145, "RA_OF_ASC_NODE": 218.2068, "ARG_OF_PERICENTER": 203.3828, "MEAN_ANOMALY": 339.3936, "EPHEMERIS_TYPE": 0, "CLASSIFICATION_TYPE": "U", "NORAD_CAT_ID": 46826, "ELEMENT_SET_NO": 999, "REV_AT_EPOCH": 3783, "BSTAR": 0, "MEAN_MOTION_DOT": 6.7e-07, "MEAN_MOTION_DDOT": 0}, "tle": {"line1": "1 46826U 20078A   25350.04599424  .00000067  00000+0  00000+0 0  9996", "line2": "2 46826  54.0145 218.2068 0064755 203.3828 339.3936  2.00566891 37831"}}, "geometry": {"type": "Point", "coordinates": [-98.0828434184821, 43.64246209130842]}}, {"type": "Feature", "properties": {"norad_id": 48859, "name": "GPS BIII-5  (PRN 11)", "group": "gps-ops", "lat": -47.64273304310009, "lon": -150.77394935147296, "alt_km": 20123.963212282266, "timestamp": "2025-12-19T20:43:00.344567+00:00", "meta": {"OBJECT_NAME": "GPS BIII-5  (PRN 11)", "OBJECT_ID": "2021-054A", "EPOCH": "2025-12-08T04:14:32.423424", "MEAN_MOTION": 2.00553627, "ECCENTRICITY": 0.0024678, "INCLINATION": 55.2581, "RA_OF_ASC_NODE": 340.1367, "ARG_OF_PERICENTER": 233.3994, "MEAN_ANOMALY": 212.8593, "EPHEMERIS_TYPE": 0, "CLASSIFICATION_TYPE": "U", "NORAD_CAT_ID": 48859, "ELEMENT_SET_NO": 999, "REV_AT_EPOCH": 3292, "BSTAR": 0, "MEAN_MOTION_DOT": -8.6e-07, "MEAN_MOTION_DDOT": 0}, "tle": {"line1": "1 48859U 21054A   25342.17676416 -.00000086  00000+0  00000+0 0  9993", "line2": "2 48859  55.2581 340.1367 0024678 233.3994 212.8593  2.00553627 32922"}}, "geometry": {"type": "Point", "coordinates": [-150.77394935147296, -47.64273304310009]}}, {"type": "Feature", "properties": {"norad_id": 55268, "name": "GPS BIII-6  (PRN 28)", "group": "gps-ops", "lat": -51.83652933014833, "lon": 92.88450702760483, "alt_km": 20185.428430738815, "timestamp": "2025-12-19T20:43:00.344579+00:00", "meta": {"OBJECT_NAME": "GPS BIII-6  (PRN 28)", "OBJECT_ID": "2023-009A", "EPOCH": "2025-12-17T11:51:56.668896", "MEAN_MOTION": 2.00555417, "ECCENTRICITY": 0.00037978, "INCLINATION": 55.1064, "RA_OF_ASC_NODE": 155.6587, "ARG_OF_PERICENTER": 358.2196, "MEAN_ANOMALY": 17.9493, "EPHEMERIS_TYPE": 0, "CLASSIFICATION_TYPE": "U", "NORAD_CAT_ID": 55268, "ELEMENT_SET_NO": 999, "REV_AT_EPOCH": 2160, "BSTAR": 0, "MEAN_MOTION_DOT": 7.7e-07, "MEAN_MOTION_DDOT": 0}, "tle": {"line1": "1 55268U 23009A   25351.49440589  .00000077  00000+0  00000+0 0  9991", "line2": "2 55268  55.1064 155.6587 0003797 358.2196  17.9493  2.00555417 21607"}}, "geometry": {"type": "Point", "coordinates": [92.88450702760483, -51.83652933014833]}}]}